{"type": "FeatureCollection", "features": [ {"type": "Feature", "properties": {"norad_id": 64202, "name": "GPS BIII-8  (PRN 21)", "group": "gnss", "lat": 3.051570734768985, "lon": -143.43961123827518, "alt_km": 20192.247818848547, "timestamp": "2025-12-11T20:41:15.325506+00:00", "meta": {"OBJECT_NAME": "GPS BIII-8  (PRN 21)", "OBJECT_ID": "2025-116A", "EPOCH": "2025-12-11T15:10:15.119616", "MEAN_MOTION": 2.00558341, "ECCENTRICITY": 0.00055101, "INCLINATION": 55.105, "RA_OF_ASC_NODE": 38.6853, "ARG_OF_PERICENTER": 307.7864, "MEAN_ANOMALY": 62.5671, "EPHEMERIS_TYPE": 0, "CLASSIFICATION_TYPE": "U", "NORAD_CAT_ID": 64202, "ELEMENT_SET_NO": 999, "REV_AT_EPOCH": 411, "BSTAR": 0, "MEAN_MOTION_DOT": -9.6e-07, "MEAN_MOTION_DDOT": 0}, "tle": {"line1": "1 64202U 25116A   25345.63211944 -.00000096  00000+0  00000+0 0  9992", "line2": "2 64202  55.1050  38.6853 0005510 307.7864  62.5671  2.00558341  4112"}}, "geometry": {"type": "Point", "coordinates": [-143.43961123827518, 3.051570734768985]}}, {"type": "Feature", "properties": {"norad_id": 65590, "name": "COSMOS 2596 (708K)", "group": "gnss", "lat": 64.17224973966461, "lon": 38.671257702736916, "alt_km": 19149.97536603599, "timestamp": "2025-12-11T20:41:15.325519+00:00", "meta": {"OBJECT_NAME": "COSMOS 2596 (708K)", "OBJECT_ID": "2025-206B", "EPOCH": "2025-12-10T13:06:28.122048", "MEAN_MOTION": 2.13100337, "ECCENTRICITY": 0.00140136, "INCLINATION": 64.7453, "RA_OF_ASC_NODE": 321.5499, "ARG_OF_PERICENTER": 305.8933, "MEAN_ANOMALY": 208.9804, "EPHEMERIS_TYPE": 0, "CLASSIFICATION_TYPE": "U", "NORAD_CAT_ID": 65590, "ELEMENT_SET_NO": 999, "REV_AT_EPOCH": 189, "BSTAR": 0, "MEAN_MOTION_DOT": -5.2e-07, "MEAN_MOTION_DDOT": 0}, "tle": {"line1": "1 65590U 25206B   25344.54615882 -.00000052  00000+0  00000+0 0  9993", "line2": "2 65590  64.7453 321.5499 0014013 305.8933 208.9804  2.13100337  1898"}}, "geometry": {"type": "Point", "coordinates": [38.671257702736916, 64.17224973966461]}}]}